#cV2022  1  8  0  0  0.00000000    1894   SLR   ECF FIT NSGF
## 2191 518400.00000000   180.00000000 59587 0.0000000000000
+    1   L56  0  0  0  0  0  0  0  0  0  0  0  0  0  0  0  0
+          0  0  0  0  0  0  0  0  0  0  0  0  0  0  0  0  0
+          0  0  0  0  0  0  0  0  0  0  0  0  0  0  0  0  0
+          0  0  0  0  0  0  0  0  0  0  0  0  0  0  0  0  0
+          0  0  0  0  0  0  0  0  0  0  0  0  0  0  0  0  0
++         0  0  0  0  0  0  0  0  0  0  0  0  0  0  0  0  0
++         0  0  0  0  0  0  0  0  0  0  0  0  0  0  0  0  0
++         0  0  0  0  0  0  0  0  0  0  0  0  0  0  0  0  0
++         0  0  0  0  0  0  0  0  0  0  0  0  0  0  0  0  0
++         0  0  0  0  0  0  0  0  0  0  0  0  0  0  0  0  0
%c L  cc UTC ccc cccc cccc cccc cccc ccccc ccccc ccccc ccccc
%c cc cc ccc ccc cccc cccc cccc cccc ccccc ccccc ccccc ccccc
%f  0.0000000  0.000000000  0.00000000000  0.000000000000000
%f  0.0000000  0.000000000  0.00000000000  0.000000000000000
%i    0    0    0    0      0      0      0      0         0
%i    0    0    0    0      0      0      0      0         0
/*                                                          
/* Earth-centered-fixed orbital predictions from SGF ILRS AC
/* The underlying ECF frame is that of IERS/ITRF            
/* Note: Solution based on 4-day long arc                   
/*                                                          
*  2022  1  8  3 24  0.00000000
PL56  -4383.787127  -5137.388643  -2446.623835
VL56 -29375.031000  -7809.156600  69071.464000
*  2022  1  8  3 27  0.00000000
PL56  -4834.642827  -5182.013397  -1167.923765
VL56 -20527.411000   2827.659400  72592.498000
*  2022  1  8  3 30  0.00000000
PL56  -5116.819865  -5037.620803    151.505390
VL56 -10689.028000  13127.108000  73583.108000
*  2022  1  8  3 33  0.00000000
PL56  -5215.640183  -4713.757400   1465.645136
VL56   -217.117950  22707.745000  72006.311000
*  2022  1  8  3 36  0.00000000
PL56  -5123.167668  -4226.543977   2728.641294
VL56  10498.987000  31223.021000  67917.296000
*  2022  1  8  3 39  0.00000000
PL56  -4838.646117  -3597.921190   3896.447501
VL56  21053.543000  38374.900000  61461.013000
*  2022  1  8  3 42  0.00000000
PL56  -4368.647333  -2854.672179   4928.391603
VL56  31040.818000  43924.978000  52866.145000
*  2022  1  8  3 45  0.00000000
PL56  -3726.923544  -2027.272035   5788.601256
VL56  40071.320000  47702.465000  42435.461000
*  2022  1  8  3 48  0.00000000
PL56  -2933.979632  -1148.625945   6447.235003
VL56  47786.642000  49608.650000  30534.244000
*  2022  1  8  3 51  0.00000000
PL56  -2016.387564   -252.751672   6881.490471
VL56  53873.275000  49618.708000  17576.953000
*  2022  1  8  3 54  0.00000000
PL56  -1005.867385    626.542302   7076.356663
VL56  58074.454000  47780.155000   4012.283100
*  2022  1  8  3 57  0.00000000
PL56     61.821704   1456.925560   7025.097665
VL56  60199.570000  44208.922000  -9691.413500
*  2022  1  8  4  0  0.00000000
PL56   1148.144556   2208.727315   6729.470847
VL56  60131.919000  39083.463000 -23061.298000
*  2022  1  8  4  3  0.00000000
PL56   2213.174023   2855.994518   6199.671511
VL56  57834.253000  32636.907000 -35635.223000
*  2022  1  8  4  6  0.00000000
PL56   3217.052472   3377.392276   5454.006868
VL56  53351.883000  25147.580000 -46976.482000
*  2022  1  8  4  9  0.00000000
PL56   4121.488914   3756.922792   4518.302236
VL56  46813.393000  16928.223000 -56688.895000
*  2022  1  8  4 12  0.00000000
PL56   4891.236432   3984.434816   3425.043717
VL56  38427.767000   8313.615100 -64430.729000
*  2022  1  8  4 15  0.00000000
PL56   5495.498801   4055.905586   2212.277977
VL56  28479.222000   -352.430640 -69928.049000
*  2022  1  8  4 18  0.00000000
PL56   5909.198134   3973.474330    922.288583
VL56  17317.164000  -8731.345500 -72985.661000
*  2022  1  8  4 21  0.00000000
PL56   6114.040600   3745.223602   -399.899512
VL56   5343.535800 -16503.631000 -73495.225000
*  2022  1  8  4 24  0.00000000
PL56   6099.323980   3384.715022  -1708.132298
VL56  -7002.961800 -23382.114000 -71439.993000
*  2022  1  8  4 27  0.00000000
PL56   5862.443851   2910.301499  -2956.782870
VL56 -19264.338000 -29123.326000 -66895.040000
*  2022  1  8  4 30  0.00000000
PL56   5409.075276   2344.253775  -4102.379952
VL56 -30981.658000 -33536.739000 -60023.926000
*  2022  1  8  4 33  0.00000000
PL56   4753.025929   1711.745038  -5105.143013
VL56 -41713.227000 -36491.249000 -51071.731000
*  2022  1  8  4 36  0.00000000
PL56   3915.767458   1039.743654  -5930.359805
VL56 -51051.802000 -37918.754000 -40354.538000
*  2022  1  8  4 39  0.00000000
PL56   2925.679349    355.873188  -6549.555995
VL56 -58639.427000 -37814.415000 -28247.221000
*  2022  1  8  4 42  0.00000000
PL56   1817.043356   -312.709974  -6941.430481
VL56 -64180.182000 -36234.414000 -15169.545000
*  2022  1  8  4 45  0.00000000
PL56    628.834039   -940.378126  -7092.536921
VL56 -67450.056000 -33291.522000  -1572.110300
*  2022  1  8  4 48  0.00000000
PL56   -596.653464  -1503.997416  -6997.706079
VL56 -68305.184000 -29148.849000  12078.499000
*  2022  1  8  4 51  0.00000000
PL56  -1815.294831  -1983.764704  -6660.203286
VL56 -66686.970000 -24012.013000  25314.089000
*  2022  1  8  4 54  0.00000000
PL56  -2982.704427  -2363.895786  -6091.624501
VL56 -62625.164000 -18120.322000  37679.664000
*  2022  1  8  4 57  0.00000000
PL56  -4055.834668  -2633.144597  -5311.530497
VL56 -56238.620000 -11737.079000  48747.541000
*  2022  1  8  5  0  0.00000000
PL56  -4994.564948  -2785.140875  -4346.825018
VL56 -47733.161000  -5138.922600  58131.961000
*  2022  1  8  5  3  0.00000000
PL56  -5763.225863  -2818.531800  -3230.875655
VL56 -37396.353000   1395.226600  65502.724000
*  2022  1  8  5  6  0.00000000
PL56  -6331.996119  -2736.918431  -2002.395327
VL56 -25588.655000   7595.773000  70598.068000
*  2022  1  8  5  9  0.00000000
PL56  -6678.109173  -2548.585958   -704.111912
VL56 -12731.118000  13213.693000  73235.217000
*  2022  1  8  5 12  0.00000000
PL56  -6786.808188  -2266.036465    618.730238
VL56    710.166890  18031.127000  73318.373000
*  2022  1  8  5 15  0.00000000
PL56  -6651.997556  -1905.343070   1919.980543
VL56  14242.125000  21870.537000  70843.089000
*  2022  1  8  5 18  0.00000000
PL56  -6276.551273  -1485.355960   3154.237480
VL56  27364.567000  24601.890000  65896.733000
*  2022  1  8  5 21  0.00000000
PL56  -5672.260954  -1026.800892   4278.472850
VL56  39590.122000  26147.414000  58654.747000
*  2022  1  8  5 24  0.00000000
PL56  -4859.428693   -551.315182   5253.557390
VL56  50463.655000  26483.704000  49373.284000
*  2022  1  8  5 27  0.00000000
PL56  -3866.130387    -80.471330   6045.620722
VL56  59579.137000  25641.050000  38378.649000
*  2022  1  8  5 30  0.00000000
PL56  -2727.195566    365.166161   6627.207311
VL56  66594.454000  23700.477000  26055.147000
*  2022  1  8  5 33  0.00000000
PL56  -1482.943178    766.909871   6978.194980
VL56  71243.590000  20788.503000  12830.847000
*  2022  1  8  5 36  0.00000000
PL56   -177.729094   1108.709447   7086.454077
VL56  73345.229000  17070.390000   -836.849220
*  2022  1  8  5 39  0.00000000
PL56   1141.639996   1377.778895   6948.237701
VL56  72809.104000  12742.154000 -14476.346000
*  2022  1  8  5 42  0.00000000
PL56   2427.577352   1565.070716   6568.302551
VL56  69639.214000   8021.606000 -27616.888000
*  2022  1  8  5 45  0.00000000
PL56   3633.424880   1665.582099   5959.759009
VL56  63934.623000   3138.693800 -39803.556000
*  2022  1  8  5 48  0.00000000
PL56   4715.150640   1678.483427   5143.650393
VL56  55887.402000  -1674.526800 -50612.360000
*  2022  1  8  5 51  0.00000000
PL56   5632.977389   1607.065703   4148.265242
VL56  45777.169000  -6193.908700 -59664.587000
*  2022  1  8  5 54  0.00000000
PL56   6352.890123   1458.509011   3008.193515
VL56  33962.723000 -10213.103000 -66641.155000
*  2022  1  8  5 57  0.00000000
PL56   6847.952056   1243.477070   1763.139153
VL56  20869.413000 -13552.892000 -71294.692000
*  2022  1  8  6  0  0.00000000
PL56   7099.368242    975.554149    456.532477
VL56   6973.688600 -16069.191000 -73459.969000
*  2022  1  8  6  3  0.00000000
PL56   7097.242527    670.550407   -866.013243
VL56  -7215.359400 -17659.669000 -73060.634000
*  2022  1  8  6  6  0.00000000
PL56   6840.984499    345.707643  -2158.338392
VL56 -21176.421000 -18268.169000 -70112.471000
*  2022  1  8  6  9  0.00000000
PL56   6339.341937     18.844673  -3375.393056
VL56 -34396.666000 -17886.876000 -64722.464000
*  2022  1  8  6 12  0.00000000
PL56   5610.063147   -292.512935  -4474.840976
VL56 -46392.096000 -16555.923000 -57084.085000
*  2022  1  8  6 15  0.00000000
PL56   4679.207485   -571.973950  -5418.544873
VL56 -56726.158000 -14360.547000 -47468.740000
*  2022  1  8  6 18  0.00000000
PL56   3580.147026   -805.052184  -6173.872912
VL56 -65025.217000 -11426.235000 -36214.740000
*  2022  1  8  6 21  0.00000000
PL56   2352.314736   -979.835523  -6714.790325
VL56 -70991.335000  -7912.295900 -23714.503000
*  2022  1  8  6 24  0.00000000
PL56   1039.752690  -1087.524914  -7022.706697
VL56 -74411.587000  -4003.943300 -10400.378000
*  2022  1  8  6 27  0.00000000
PL56   -310.478225  -1122.824784  -7087.066121
VL56 -75164.317000     96.261036   3269.683800
*  2022  1  8  6 30  0.00000000
PL56  -1649.975825  -1084.173084  -6905.676179
VL56 -73222.449000   4177.582200  16826.791000
*  2022  1  8  6 33  0.00000000
PL56  -2930.710992   -973.804549  -6484.773280
VL56 -68654.434000   8030.463500  29805.777000
*  2022  1  8  6 36  0.00000000
PL56  -4106.728854   -797.645025  -5838.823444
VL56 -61621.720000  11455.865000  41759.790000
*  2022  1  8  6 39  0.00000000
PL56  -5135.791080   -565.041542  -4990.066952
VL56 -52374.792000  14274.168000  52274.302000
*  2022  1  8  6 42  0.00000000
PL56  -5980.912789   -288.335362  -3967.803699
VL56 -41245.431000  16333.602000  60981.673000
*  2022  1  8  6 45  0.00000000
PL56  -6611.736113     17.707853  -2807.429227
VL56 -28636.155000  17517.729000  67574.442000
EOF
